{
  "66204": {
    "noradId": "66204",
    "tle": [
      "1 66204C 25243AD  26038.77479167 -.00000590  00000+0 -19878-4 0   387",
      "2 66204  53.1593  24.2760 0001353  87.5208 236.6268 15.30186932    11"
    ]
  },
  "66206": {
    "noradId": "66206",
    "tle": [
      "1 66206C 25244A   26038.77131944 -.00002612  00000+0 -88046-4 0   388",
      "2 66206  53.1594   8.9087 0001165  93.5894  84.2259 15.30192627    19"
    ]
  },
  "66207": {
    "noradId": "66207",
    "tle": [
      "1 66207C 25244B   26038.77479167 -.00007705  00000+0 -25973-3 0   388",
      "2 66207  53.1612   9.2138 0001268  97.5122 267.5480 15.30195089    11"
    ]
  },
  "66208": {
    "noradId": "66208",
    "tle": [
      "1 66208C 25244C   26038.77340278 -.00003550  00000+0 -11967-3 0   381",
      "2 66208  53.1603   8.7148 0001253  81.6126 200.7563 15.30191593    16"
    ]
  },
  "66209": {
    "noradId": "66209",
    "tle": [
      "1 66209C 25244D   26038.77340278  .00002460  00000+0  82927-4 0   384",
      "2 66209  53.1603   8.6110 0001305  78.8828 255.8509 15.30179768    11"
    ]
  },
  "66210": {
    "noradId": "66210",
    "tle": [
      "1 66210C 25244E   26038.77479167  .00005287  00000+0  17821-3 0   386",
      "2 66210  53.1604   8.6389 0001288  90.4943 234.4363 15.30180560    13"
    ]
  },
  "66211": {
    "noradId": "66211",
    "tle": [
      "1 66211C 25244F   26038.77826389  .00009101  00000+0  30681-3 0   387",
      "2 66211  53.1604   8.5531 0001240  88.6823 290.2952 15.30173397    10"
    ]
  },
  "66212": {
    "noradId": "66212",
    "tle": [
      "1 66212C 25244G   26038.77895833  .00003256  00000+0  10977-3 0   389",
      "2 66212  53.1595   9.1242 0001240  94.4513 357.5149 15.30184821    16"
    ]
  },
  "66213": {
    "noradId": "66213",
    "tle": [
      "1 66213C 25244H   26038.80465278 -.00000272  00000+0 -91550-5 0   385",
      "2 66213  53.1601   8.3961 0001314  95.0615  86.8065 15.30183623    14"
    ]
  },
  "66214": {
    "noradId": "66214",
    "tle": [
      "1 66214C 25244J   26038.77687500 -.00004095  00000+0 -13804-3 0   387",
      "2 66214  53.1599   9.2236 0001222  92.4701 301.4774 15.30191574    18"
    ]
  },
  "66215": {
    "noradId": "66215",
    "tle": [
      "1 66215C 25244K   26038.77687500 -.00005053  00000+0 -17033-3 0   381",
      "2 66215  53.1607   8.6473 0001240  94.8678 229.9140 15.30190331    15"
    ]
  },
  "66216": {
    "noradId": "66216",
    "tle": [
      "1 66216C 25244L   26038.77479167  .00000447  00000+0  15051-4 0   389",
      "2 66216  53.1590   9.0287 0001246 102.0769  25.0897 15.30187413    15"
    ]
  },
  "66217": {
    "noradId": "66217",
    "tle": [
      "1 66217C 25244M   26038.77340278  .00003473  00000+0  11706-3 0   384",
      "2 66217  53.1592   8.9653 0001452  97.8328  56.5713 15.30185732    12"
    ]
  },
  "66218": {
    "noradId": "66218",
    "tle": [
      "1 66218C 25244N   26038.77340278 -.00024650  00000+0 -83107-3 0   381",
      "2 66218  53.1600   8.7575 0001926  80.9770 178.1637 15.30204487    19"
    ]
  },
  "66219": {
    "noradId": "66219",
    "tle": [
      "1 66219C 25244P   26038.77895833 -.00000523  00000+0 -17643-4 0   380",
      "2 66219  53.1602   8.7077 0001386  87.9925 213.4179 15.30171624    18"
    ]
  },
  "66220": {
    "noradId": "66220",
    "tle": [
      "1 66220C 25244Q   26038.77409722  .00012681  00000+0  42752-3 0   384",
      "2 66220  53.1607   8.6254 0001363  92.1435 234.7885 15.30169514    15"
    ]
  },
  "66221": {
    "noradId": "66221",
    "tle": [
      "1 66221C 25244R   26038.77409722 -.00001179  00000+0 -39732-4 0   382",
      "2 66221  53.1596   8.9358 0001162  84.6172  85.2627 15.30187266    19"
    ]
  },
  "66222": {
    "noradId": "66222",
    "tle": [
      "1 66222C 25244S   26038.77965278  .00002561  00000+0  86323-4 0   388",
      "2 66222  53.1594   8.9440 0001268  88.5242  94.5325 15.30182814    10"
    ]
  },
  "66223": {
    "noradId": "66223",
    "tle": [
      "1 66223C 25244T   26038.77618056  .00002058  00000+0  69355-4 0   385",
      "2 66223  53.1594   9.0292 0001284  91.8961  37.1134 15.30185814    15"
    ]
  },
  "66224": {
    "noradId": "66224",
    "tle": [
      "1 66224C 25244U   26038.77687500 -.00001040  00000+0 -35060-4 0   384",
      "2 66224  53.1597   9.1754 0001337  79.1139 338.1149 15.30186591    11"
    ]
  },
  "66225": {
    "noradId": "66225",
    "tle": [
      "1 66225C 25244V   26038.77756944  .00000528  00000+0  17799-4 0   381",
      "2 66225  53.1594   8.9871 0001327 105.4648  48.6459 15.30188160    14"
    ]
  },
  "66226": {
    "noradId": "66226",
    "tle": [
      "1 66226C 25244W   26038.77965278 -.00003573  00000+0 -12041-3 0   383",
      "2 66226  53.1598   8.8041 0001409  96.6248 156.2139 15.30193714    17"
    ]
  },
  "66227": {
    "noradId": "66227",
    "tle": [
      "1 66227C 25244X   26038.77618056  .00006039  00000+0  20361-3 0   385",
      "2 66227  53.1601   8.7852 0001300 101.8898 149.2715 15.30175373    15"
    ]
  },
  "66228": {
    "noradId": "66228",
    "tle": [
      "1 66228C 25244Y   26038.77687500 -.00010762  00000+0 -36276-3 0   388",
      "2 66228  53.1604   8.7467 0001246  83.7291 188.7042 15.30197464    11"
    ]
  },
  "66229": {
    "noradId": "66229",
    "tle": [
      "1 66229C 25244Z   26038.77687500 -.00004824  00000+0 -16261-3 0   383",
      "2 66229  53.1605   8.7235 0001229  78.5045 205.5576 15.30194557    16"
    ]
  },
  "66230": {
    "noradId": "66230",
    "tle": [
      "1 66230C 25244AA  26038.77826389 -.00000277  00000+0 -93282-5 0   383",
      "2 66230  53.1600   8.8984 0001207  88.8652 109.7986 15.30187271    14"
    ]
  },
  "66231": {
    "noradId": "66231",
    "tle": [
      "1 66231C 25244AB  26038.77479167  .00003961  00000+0  13355-3 0   384",
      "2 66231  53.1607   8.6637 0001326  89.5183 217.9800 15.30177039    12"
    ]
  },
  "66232": {
    "noradId": "66232",
    "tle": [
      "1 66232C 25244AC  26038.77548611 -.00004046  00000+0 -13640-3 0   380",
      "2 66232  53.1598   9.2012 0001255  89.6397 308.2959 15.30189999    12"
    ]
  },
  "66233": {
    "noradId": "66233",
    "tle": [
      "1 66233C 25244AD  26038.77687500 -.00003094  00000+0 -10431-3 0   389",
      "2 66233  53.1597   9.1603 0001350  78.2887 344.7580 15.30189643    12"
    ]
  },
  "66234": {
    "noradId": "66234",
    "tle": [
      "1 66234C 25245A   26038.78034722 -.00016115  00000+0 -54322-3 0   389",
      "2 66234  53.1585  62.6684 0001303  84.3512 127.6352 15.30202694    11"
    ]
  },
  "66235": {
    "noradId": "66235",
    "tle": [
      "1 66235C 25245B   26038.77965278 -.00010587  00000+0 -35682-3 0   383",
      "2 66235  53.1592  62.6364 0001309  85.7275 139.8902 15.30202907    15"
    ]
  },
  "66236": {
    "noradId": "66236",
    "tle": [
      "1 66236C 25245C   26038.77548611 -.00013515  00000+0 -45556-3 0   387",
      "2 66236  53.1592  63.0341 0001341  88.3496 282.3621 15.30200118    10"
    ]
  },
  "66237": {
    "noradId": "66237",
    "tle": [
      "1 66237C 25245D   26038.77687500 -.00023207  00000+0 -78206-3 0   386",
      "2 66237  53.1586  62.9921 0001448  88.7185 307.0745 15.30218973    13"
    ]
  },
  "66238": {
    "noradId": "66238",
    "tle": [
      "1 66238C 25245E   26038.77409722  .00011223  00000+0  37838-3 0   384",
      "2 66238  53.1588  62.9818 0001380  87.4864 304.7030 15.30169316    13"
    ]
  },
  "66239": {
    "noradId": "66239",
    "tle": [
      "1 66239C 25245F   26038.77340278 -.00009689  00000+0 -32656-3 0   383",
      "2 66239  53.1583  62.9628 0001407  88.5447 311.4037 15.30201673    12"
    ]
  },
  "66240": {
    "noradId": "66240",
    "tle": [
      "1 66240C 25245G   26038.77548611 -.00006358  00000+0 -21432-3 0   386",
      "2 66240  53.1591  62.6425 0001334  90.3566 118.1234 15.30194648    11"
    ]
  },
  "66241": {
    "noradId": "66241",
    "tle": [
      "1 66241C 25245H   26038.77965278  .00000795  00000+0  26812-4 0   384",
      "2 66241  53.1601  62.5765 0001440  87.5223 167.1955 15.30188372    17"
    ]
  },
  "66242": {
    "noradId": "66242",
    "tle": [
      "1 66242C 25245J   26038.77826389 -.00011407  00000+0 -38447-3 0   384",
      "2 66242  53.1600  63.1561 0001388  84.4228 231.8027 15.30200630    11"
    ]
  },
  "66243": {
    "noradId": "66243",
    "tle": [
      "1 66243C 25245K   26038.77826389 -.00006376  00000+0 -21493-3 0   387",
      "2 66243  53.1605  62.5479 0001488  92.5498 171.9628 15.30193718    17"
    ]
  },
  "66244": {
    "noradId": "66244",
    "tle": [
      "1 66244C 25245L   26038.77479167 -.00028619  00000+0 -96362-3 0   387",
      "2 66244  53.1606  62.4941 0001270  86.9325 193.3462 15.30251750    12"
    ]
  },
  "66245": {
    "noradId": "66245",
    "tle": [
      "1 66245C 25245M   26038.77479167 -.00006503  00000+0 -21920-3 0   384",
      "2 66245  53.1600  63.1373 0001489  86.3212 228.2265 15.30194337    11"
    ]
  },
  "66246": {
    "noradId": "66246",
    "tle": [
      "1 66246C 25245N   26038.77687500 -.00012845  00000+0 -43297-3 0   384",
      "2 66246  53.1582  62.9092 0001442  93.3728 343.1620 15.30201453    15"
    ]
  },
  "66247": {
    "noradId": "66247",
    "tle": [
      "1 66247C 25245P   26038.77826389 -.00002480  00000+0 -83596-4 0   386",
      "2 66247  53.1577  62.8675 0001499  89.3523  12.3019 15.30189731    17"
    ]
  },
  "66248": {
    "noradId": "66248",
    "tle": [
      "1 66248C 25245Q   26038.77895833  .00008482  00000+0  28590-3 0   385",
      "2 66248  53.1574  62.8292 0001159  92.2724  30.6638 15.30179897    11"
    ]
  },
  "66249": {
    "noradId": "66249",
    "tle": [
      "1 66249C 25245R   26038.77270833 -.00004478  00000+0 -15091-3 0   388",
      "2 66249  53.1581  62.7196 0002206  88.1653  70.1107 15.30192897    16"
    ]
  }
}